IRIDIUM 166             
1 43570U 18061B   25272.22123029  .00000426  00000+0  14511-3 0  9990
2 43570  86.4035 165.8220 0002190  78.7163 281.4279 14.34216622375992
IRIDIUM 158             
1 43571U 18061C   25272.18951954 -.00000010  00000+0 -10764-4 0  9990
2 43571  86.4038 165.8456 0002086  85.4842 274.6592 14.34216180375957
IRIDIUM 165             
1 43572U 18061D   25272.07534526  .00000464  00000+0  15854-3 0  9996
2 43572  86.4038 165.9344 0002046  81.5410 278.6018 14.34221689375967
IRIDIUM 155             
1 43573U 18061E   25272.10706643  .00000057  00000+0  13358-4 0  9998
2 43573  86.4033 165.8034 0002342  83.3246 276.8217 14.34217488375934
IRIDIUM 154             
1 43574U 18061F   25272.22757162  .00000413  00000+0  14049-3 0  9997
2 43574  86.4038 165.8735 0002109  81.7767 278.3668 14.34219645376002
IRIDIUM 163             
1 43575U 18061G   25272.20854751  .00000124  00000+0  37354-4 0  9992
2 43575  86.4033 165.8052 0002175  89.5049 270.6396 14.34217886375975
IRIDIUM 156             
1 43576U 18061H   25272.18316388  .00000426  00000+0  14506-3 0  9997
2 43576  86.4036 165.8230 0002349  79.2761 280.8700 14.34223299375963
IRIDIUM 164             
1 43577U 18061J   25272.09438051 -.00000071  00000+0 -32553-4 0  9991
2 43577  86.4036 165.8957 0001958  78.1480 281.9935 14.34216508375991
